COSMOS 2251 DEB         
1 35716U 93036AQM 25109.84200410  .00001411  00000+0  28601-3 0  9995
2 35716  73.9920 287.3760 0090701 186.7385 239.0294 14.59683645841702
COSMOS 2251 DEB         
1 35717U 93036AQN 25106.78874928  .00007274  00000+0  24062-2 0  9996
2 35717  74.1611 295.6542 0079611 219.2602 140.2763 14.36295264820043
COSMOS 2251 DEB         
1 35718U 93036AQP 25108.00758067  .00013557  00000+0  25656-2 0  9990
2 35718  74.0366 230.1165 0014438 344.0162  16.0548 14.64312153623410
COSMOS 2251 DEB         
1 35721U 93036AQS 25110.08315464  .00007655  00000+0  25169-2 0  9996
2 35721  73.9503 252.5145 0152711  90.7972 271.0678 14.31944876821731
COSMOS 2251 DEB         
1 35724U 93036AQV 25109.11129652  .00001791  00000+0  39035-3 0  9996
2 35724  74.0352  34.6508 0062687 247.8570 111.5933 14.57487832840668
COSMOS 2251 DEB         
1 35729U 93036ARA 25101.97714330  .00092200  00000+0  50119-2 0  9990
2 35729  74.0144 315.5260 0022494 140.7415 288.0256 15.13806685848568
COSMOS 2251 DEB         
1 35759U 93036ARD 25104.86629653  .00003114  00000+0  57591-3 0  9995
2 35759  74.0378 320.7688 0078175 142.3389 218.3289 14.63846014625959
COSMOS 2251 DEB         
1 35771U 93036ARR 25109.10520764  .00016332  00000+0  75686-2 0  9994
2 35771  74.1719   5.8432 0224466   7.7994 352.6538 14.08336990795103
COSMOS 2251 DEB         
1 35773U 93036ART 25109.56138680  .00005503  00000+0  11235-2 0  9996
2 35773  74.0066  75.0112 0050815 289.8027  69.7664 14.60332063833753
COSMOS 2251 DEB         
1 35777U 93036ARX 25109.09056192  .00000566  00000+0  58720-3 0  9990
2 35777  73.7729 342.3117 0451066 271.8781 244.3665 13.40994589764989
COSMOS 2251 DEB         
1 35784U 93036ASE 25101.95985819  .00002040  00000+0  53483-3 0  9992
2 35784  74.0399 189.0619 0041710  17.5550 342.7040 14.49383394621592
COSMOS 2251 DEB         
1 35786U 93036ASG 25105.39554830  .00007745  00000+0  14969-2 0  9993
2 35786  74.0136 148.1898 0040418 332.3533  27.5484 14.63020936844651
COSMOS 2251 DEB         
1 35789U 93036ASK 25104.14231472  .00000629  00000+0  22340-3 0  9999
2 35789  74.0410   9.5832 0048210 171.0445 189.1579 14.35776935577452
COSMOS 2251 DEB         
1 35793U 93036ASP 25109.85328999  .00013157  00000+0  20729-2 0  9996
2 35793  74.0503 163.0282 0011793 298.6749 177.8826 14.72453123623042
COSMOS 2251 DEB         
1 35824U 93036ASW 25108.64244602  .00002374  00000+0  15564-2 0  9995
2 35824  73.8431  97.7290 0260367 225.6410 132.3124 13.87422103809248
COSMOS 2251 DEB         
1 35825U 93036ASX 25106.46876926  .00001664  00000+0  12270-2 0  9996
2 35825  74.1131 177.2230 0357760 329.6193  28.4608 13.69841794792171
COSMOS 2251 DEB         
1 35829U 93036ATB 25106.94560964  .00074453  00000+0  12246-1 0  9993
2 35829  74.0277 205.9703 0012570 332.2243  27.8255 14.70074392843692
COSMOS 2251 DEB         
1 35830U 93036ATC 25107.32193163  .00007852  00000+0  32975-2 0  9992
2 35830  73.8648 341.4727 0118261 356.9903   3.0514 14.22303574578586
COSMOS 2251 DEB         
1 35834U 93036ATG 25105.51683514  .00000759  00000+0  39895-3 0  9997
2 35834  73.9355  13.7124 0111444 223.7125 315.4650 14.12750519628568
COSMOS 2251 DEB         
1 35835U 93036ATH 25103.27847364  .00003653  00000+0  24413-2 0  9999
2 35835  74.0628 317.3986 0298853 154.7540 206.8541 13.81799473800557
COSMOS 2251 DEB         
1 35836U 93036ATJ 25105.88812983  .00018790  00000+0  34575-2 0  9996
2 35836  74.0334 278.3462 0028473  45.9057 314.4447 14.65309711840235
COSMOS 2251 DEB         
1 35837U 93036ATK 25110.05096155  .00009575  00000+0  69275-2 0  9993
2 35837  73.7301 240.5464 0424271 194.2634 293.7959 13.61078603783437
COSMOS 2251 DEB         
1 35839U 93036ATM 25109.96506006  .00072040  00000+0  48057-2 0  9996
2 35839  74.2247  94.0276 0021663 300.9184  91.8110 15.06485917849688
COSMOS 2251 DEB         
1 35840U 93036ATN 25110.01997639  .00011684  00000+0  37776-2 0  9995
2 35840  73.9332 235.9318 0119808 189.0492 170.8503 14.35097960826284
COSMOS 2251 DEB         
1 35883U 93036ATW 25105.44131738  .00001785  00000+0  44820-3 0  9993
2 35883  74.0236 163.6891 0085123 350.4907  31.8132 14.49908586588881
COSMOS 2251 DEB         
1 35885U 93036ATY 25110.10933956  .00001272  00000+0  43604-3 0  9996
2 35885  74.0304  10.2948 0024263 154.2017 206.0352 14.37041312830656
COSMOS 2251 DEB         
1 35888U 93036AUB 25108.62983039  .00003457  00000+0  75780-3 0  9997
2 35888  74.0329  89.4493 0052899 279.7589  79.7603 14.57183152828047
COSMOS 2251 DEB         
1 35890U 93036AUD 25105.37990167  .00010795  00000+0  25409-2 0  9994
2 35890  73.9397 342.4615 0063018 161.9272 198.4151 14.53192683616404
COSMOS 2251 DEB         
1 35891U 93036AUE 25104.10355078  .00036408  00000+0  17275-2 0  9992
2 35891  73.9955 246.7188 0066019  78.1634 282.6956 15.17141490635255
COSMOS 2251 DEB         
1 35893U 93036AUG 25101.27109527  .00765607  00000+0  16848-1 0  9999
2 35893  73.6193 293.3282 0023455 188.4711 171.6103 15.41136169623835
COSMOS 2251 DEB         
1 35895U 93036AUJ 25094.19445232  .00002843  00000+0  15934-2 0  9991
2 35895  74.0481  65.2290 0215232 224.5940 133.7705 14.00075194554765
COSMOS 2251 DEB         
1 35898U 93036AUM 25106.63706802  .00014149  00000+0  13521-2 0  9992
2 35898  73.9897  60.8943 0090125 265.0956 274.2771 14.90217605845369
COSMOS 2251 DEB         
1 35901U 93036AUQ 25105.81686520  .00030371  00000+0  32860-2 0  9992
2 35901  74.0183 149.7176 0013975 298.3825 181.9719 14.88072130826107
COSMOS 2251 DEB         
1 35902U 93036AUR 25102.00749439  .00004687  00000+0  18828-2 0  9999
2 35902  73.9835 318.1535 0106725 129.0316 232.0391 14.25353335816149
COSMOS 2251 DEB         
1 35905U 93036AUU 25106.35139885  .00014089  00000+0  11731-2 0  9995
2 35905  74.0343 337.0916 0097362 122.9563 238.1030 14.94988163851575
COSMOS 2251 DEB         
1 35959U 93036AUZ 25106.77064139  .00000623  00000+0  23193-3 0  9994
2 35959  74.0346  31.2876 0022574 175.7970 184.3376 14.33947974814882
COSMOS 2251 DEB         
1 35961U 93036AVB 25104.13633359  .00002715  00000+0  14703-2 0  9991
2 35961  73.9296 270.4048 0191124 252.6540 105.3611 14.04127882810215
COSMOS 2251 DEB         
1 35970U 93036AVL 25108.23645077  .00116112  00000+0  45888-2 0  9991
2 35970  74.0215 308.6834 0023912 133.9533 226.3645 15.24677751832883
COSMOS 2251 DEB         
1 35974U 93036AVQ 25104.58529325  .00261653  00000+0  95359-2 0  9995
2 35974  73.9987  58.5163 0020946 218.1403 141.8317 15.26792281625822
COSMOS 2251 DEB         
1 35975U 93036AVR 25106.54547234  .00005362  00000+0  21498-2 0  9999
2 35975  74.0549  42.9108 0118660 182.8010 177.2488 14.24702367821583
COSMOS 2251 DEB         
1 35979U 93036AVV 25106.42466082  .00010693  00000+0  16757-2 0  9996
2 35979  74.0103 347.1257 0065757 181.1611 357.3919 14.71306620850952
COSMOS 2251 DEB         
1 35980U 93036AVW 25098.64655333  .00012578  00000+0  28141-2 0  9995
2 35980  73.9131 237.6280 0058034  64.9437 295.7735 14.55698070818923
COSMOS 2251 DEB         
1 35982U 93036AVY 25109.90709287  .00003810  00000+0  75356-3 0  9997
2 35982  74.0579  79.6520 0068692 210.1077 149.6134 14.61207251827058
COSMOS 2251 DEB         
1 35987U 93036AWD 25105.84161053  .00004857  00000+0  14803-2 0  9995
2 35987  74.0023  54.3634 0053070 236.6670 122.9399 14.41431551575922
COSMOS 2251 DEB         
1 35989U 93036AWF 25106.06181115  .00001137  00000+0  39314-3 0  9996
2 35989  74.0401   6.2723 0022249 153.1780 207.0529 14.36738770837229
COSMOS 2251 DEB         
1 35993U 93036AWK 25108.57430931  .00006779  00000+0  13115-2 0  9999
2 35993  74.0157  70.8502 0032207 311.5377  48.3028 14.63202275569577
COSMOS 2251 DEB         
1 35996U 93036AWN 25106.08590076  .00014414  00000+0  94207-3 0  9990
2 35996  74.0180 237.8199 0098413  31.8770 328.8321 15.03840958687038
COSMOS 2251 DEB         
1 35997U 93036AWP 25103.20326684  .00006383  00000+0  16581-2 0  9998
2 35997  74.0434 284.7446 0015963  65.1705 295.1113 14.49797708673532
COSMOS 2251 DEB         
1 36005U 93036AWX 25109.61400846  .00000821  00000+0  22827-3 0  9995
2 36005  74.0272 177.5118 0061477  11.0238 349.2251 14.46974861841546
COSMOS 2251 DEB         
1 36045U 93036AXG 25107.84542948  .00013931  00000+0  26217-2 0  9994
2 36045  73.7595 167.1446 0056734 233.1064 126.4895 14.63584057 48874
COSMOS 2251 DEB         
1 36046U 93036AXH 25110.06563951  .00003518  00000+0  66527-3 0  9999
2 36046  74.0219  11.8317 0060388 217.3144 206.1997 14.63605831844571
COSMOS 2251 DEB         
1 36047U 93036AXJ 25109.34946357  .00032843  00000+0  38539-2 0  9998
2 36047  74.0381  88.6991 0015717 239.6251 120.3375 14.84711744849233
COSMOS 2251 DEB         
1 36048U 93036AXK 25109.19067557  .00001227  00000+0  41720-3 0  9997
2 36048  74.0589  15.9734 0026341 131.1555  21.2840 14.37426752820886
COSMOS 2251 DEB         
1 36049U 93036AXL 25108.68816665  .00007789  00000+0  16508-2 0  9997
2 36049  74.0325 213.9430 0013076 351.6101   8.4844 14.59291701818892
COSMOS 2251 DEB         
1 36050U 93036AXM 25106.31082461  .00015433  00000+0  12307-2 0  9994
2 36050  74.0337 321.8021 0095354 107.2073 253.9577 14.96745631634336
COSMOS 2251 DEB         
1 36052U 93036AXP 25107.37662999  .00062249  00000+0  46680-2 0  9991
2 36052  74.0063 123.2669 0016337 279.1311  80.8029 15.02233675829517
COSMOS 2251 DEB         
1 36053U 93036AXQ 25109.35636713  .00010990  00000+0  26038-2 0  9998
2 36053  73.8731 246.7832 0033093 243.2200 116.5575 14.53769982839915
COSMOS 2251 DEB         
1 36058U 93036AXV 25105.34048921  .00004309  00000+0  94744-3 0  9993
2 36058  74.0222 132.8670 0049011 323.1808  36.5992 14.57075930625938
COSMOS 2251 DEB         
1 36060U 93036AXX 25108.90240776  .00001616  00000+0  50638-3 0  9995
2 36060  74.0297 315.3844 0015071 116.6719 243.5982 14.41368930815825
COSMOS 2251 DEB         
1 36061U 93036AXY 25101.22459712  .00001841  00000+0  67293-3 0  9991
2 36061  74.0211  88.9424 0040607 237.1482 122.5758 14.33214943837127
